     2.100          NAVIGATION                              RINEX VERSION / TYPE
fic2rin                                 03/02/2012 00:15:29 PGM / RUN BY / DATE
                                                            END OF HEADER
31 12  3  1  8  0  0.0  .214275904000D-03  .443378667114D-11  .000000000000D+00
     .170000000000D+02 -.128437500000D+02  .412838624957D-08  .717774232441D+00
    -.705942511559D-06  .800022063777D-02  .443682074547D-05  .515359943771D+04
     .374400000000D+06  .335276126862D-07 -.272669400070D+01 -.121071934700D-06
     .980964833877D+00  .301781250000D+03 -.893728275599D+00 -.813712465819D-08
     .325013538118D-10  .100000000000D+01  .167700000000D+04  .000000000000D+00
     .240000000000D+01  .000000000000D+00 -.130385160446D-07  .170000000000D+02
     .367206000000D+06  .400000000000D+01
32 12  3  1  8  0  0.0 -.414428766817D-03 -.511590769747D-11  .000000000000D+00
     .450000000000D+02  .345625000000D+02  .468590947265D-08  .134095498960D+01
     .178627669811D-05  .118502695113D-01  .820681452751D-05  .515373126602D+04
     .374400000000D+06  .271946191788D-06  .153342919755D+01  .156462192535D-06
     .952046830423D+00  .213281250000D+03 -.608702584620D+00 -.798104672835D-08
    -.263582407837D-09  .100000000000D+01  .167700000000D+04  .000000000000D+00
     .240000000000D+01  .000000000000D+00 -.279396772385D-08  .450000000000D+02
     .367206000000D+06  .400000000000D+01
30 12  3  1  7 59 44.0 -.646510161459D-04 -.148929757415D-10  .000000000000D+00
     .400000000000D+01 -.608125000000D+02  .451947396852D-08 -.287678747189D+01
    -.330433249474D-05  .108916290337D-01  .639259815216D-05  .515362388992D+04
     .374384000000D+06  .156462192535D-06 -.179647665538D+01  .335276126862D-07
     .958583821344D+00  .251281250000D+03  .155386941226D+01 -.791532970525D-08
     .135719938995D-09  .100000000000D+01  .167700000000D+04  .000000000000D+00
     .340000000000D+01  .000000000000D+00 -.419095158577D-08  .400000000000D+01
     .368736000000D+06  .400000000000D+01
18 12  3  1  7 59 44.0  .184038653970D-03  .181898940355D-11  .000000000000D+00
     .200000000000D+01  .425937500000D+02  .517664419944D-08 -.125078422142D+01
     .222027301788D-05  .128710715799D-01  .858120620251D-05  .515367184067D+04
     .374384000000D+06  .311061739922D-06  .145662506358D+01  .171363353729D-06
     .930137489011D+00  .198000000000D+03 -.219503112667D+01 -.828927385296D-08
    -.337871216549D-09  .100000000000D+01  .167700000000D+04  .000000000000D+00
     .240000000000D+01  .000000000000D+00 -.107102096081D-07  .200000000000D+01
     .370206000000D+06  .400000000000D+01
11 12  3  1  7 59 44.0 -.237353146076D-03 -.363797880709D-11  .000000000000D+00
     .500000000000D+01 -.103125000000D+02  .656955936280D-08  .888284643318D+00
    -.378116965294D-06  .127564064460D-01  .700540840626D-05  .515367212486D+04
     .374384000000D+06 -.132247805595D-06  .129785625704D+00  .121071934700D-06
     .888427080337D+00  .207968750000D+03  .103015632473D+01 -.917752513790D-08
    -.104647216119D-09  .100000000000D+01  .167700000000D+04  .000000000000D+00
     .240000000000D+01  .000000000000D+00 -.116415321827D-07  .500000000000D+01
     .370536000000D+06  .400000000000D+01
15 12  3  1  7 59 44.0 -.924407504499D-04  .454747350886D-12  .000000000000D+00
     .800000000000D+01  .746562500000D+02  .479341395065D-08  .273451927824D+01
     .387616455555D-05  .435494573321D-02  .602006912231D-05  .515377869606D+04
     .374384000000D+06 -.279396772385D-07  .247209068011D+01 -.558793544769D-08
     .946462206487D+00  .256375000000D+03  .454825678115D-01 -.827213028172D-08
     .100004165575D-10  .100000000000D+01  .167700000000D+04  .000000000000D+00
     .240000000000D+01  .000000000000D+00 -.102445483208D-07  .800000000000D+01
     .371436000000D+06  .400000000000D+01
11 12  3  1  9 59 44.0 -.237379688770D-03 -.363797880709D-11  .000000000000D+00
     .160000000000D+02 -.865625000000D+01  .644812573318D-08  .193850350119D+01
    -.644475221634D-06  .127564611612D-01  .699609518051D-05  .515367160225D+04
     .381584000000D+06 -.204890966415D-06  .129719165335D+00 -.286847352982D-06
     .888428227265D+00  .206312500000D+03  .103013471158D+01 -.882751055839D-08
     .835749098019D-10  .100000000000D+01  .167700000000D+04  .000000000000D+00
     .240000000000D+01  .000000000000D+00 -.116415321827D-07  .160000000000D+02
     .374406000000D+06  .400000000000D+01
15 12  3  1  9 59 44.0 -.924374908209D-04  .454747350886D-12  .000000000000D+00
     .900000000000D+01  .668125000000D+02  .475055502254D-08 -.249867004517D+01
     .347010791302D-05  .435531907715D-02  .618584454060D-05  .515377787209D+04
     .381584000000D+06  .372529029846D-08  .247203130027D+01  .111758708954D-07
     .946462436165D+00  .255875000000D+03  .456047009903D-01 -.823391440416D-08
     .464305054455D-11  .100000000000D+01  .167700000000D+04  .000000000000D+00
     .240000000000D+01  .000000000000D+00 -.102445483208D-07  .900000000000D+01
     .374406000000D+06  .400000000000D+01
18 12  3  1  9 59 44.0  .184051692486D-03  .181898940355D-11  .000000000000D+00
     .300000000000D+01  .450312500000D+02  .531700718898D-08 -.200530034069D+00
     .238791108131D-05  .128719039494D-01  .820867717266D-05  .515367412186D+04
     .381584000000D+06 -.223517417908D-07  .145656382437D+01  .135973095894D-06
     .930133752719D+00  .206406250000D+03 -.219509864619D+01 -.860250118585D-08
    -.323227749447D-09  .100000000000D+01  .167700000000D+04  .000000000000D+00
     .240000000000D+01  .000000000000D+00 -.107102096081D-07  .300000000000D+01
     .374406000000D+06  .400000000000D+01
30 12  3  1  9 59 44.0 -.647585839033D-04 -.148929757415D-10  .000000000000D+00
     .530000000000D+02 -.711250000000D+02  .443089885044D-08 -.182650077412D+01
    -.341795384884D-05  .108904344961D-01  .657700002193D-05  .515362655449D+04
     .381584000000D+06  .156462192535D-06 -.179653346634D+01  .201165676117D-06
     .958584412363D+00  .247000000000D+03  .155379231501D+01 -.801104797802D-08
     .960754304987D-10  .100000000000D+01  .167700000000D+04  .000000000000D+00
     .485000000000D+01  .000000000000D+00 -.419095158577D-08  .530000000000D+02
     .374406000000D+06  .400000000000D+01
 1 12  3  1 10  0  0.0  .223346520215D-03  .841282599140D-11  .000000000000D+00
     .105000000000D+03 -.200000000000D+01  .479841415892D-08  .174425261581D+01
    -.838190317154D-07  .560317188501D-03  .734068453312D-05  .515365255928D+04
     .381600000000D+06 -.409781932831D-07  .393171547185D+00  .186264514923D-07
     .960476677880D+00  .236875000000D+03  .799581225859D+00 -.804890669784D-08
    -.325013538118D-10  .100000000000D+01  .167700000000D+04  .000000000000D+00
     .240000000000D+01  .000000000000D+00  .838190317154D-08  .105000000000D+03
     .374406000000D+06  .400000000000D+01
 2 12  3  1 10  0  0.0  .381052959710D-03  .147792889038D-11  .000000000000D+00
     .106000000000D+03 -.740625000000D+01  .511521306916D-08 -.300500409309D+01
    -.437721610069D-06  .109775217716D-01  .773556530476D-05  .515365321922D+04
     .381600000000D+06 -.189989805222D-06  .381323436566D+00 -.100582838058D-06
     .939044884132D+00  .217468750000D+03 -.285104923938D+01 -.810462330438D-08
    -.121433629627D-09  .100000000000D+01  .167700000000D+04  .000000000000D+00
     .240000000000D+01  .000000000000D+00 -.172294676304D-07  .106000000000D+03
     .374406000000D+06  .400000000000D+01
 3 12  3  1 10  0  0.0  .164248049259D-04  .511590769747D-11  .000000000000D+00
     .940000000000D+02 -.384062500000D+02  .522878922863D-08 -.286405589042D+01
    -.211596488953D-05  .150540616596D-01  .785477459431D-05  .515370627213D+04
     .381600000000D+06  .277534127235D-06 -.780857347603D+00 -.145286321640D-06
     .930646398712D+00  .208781250000D+03  .117228712112D+01 -.809355141462D-08
     .324656380384D-09  .100000000000D+01  .167700000000D+04  .000000000000D+00
     .340000000000D+01  .000000000000D+00 -.419095158577D-08  .940000000000D+02
     .374406000000D+06  .400000000000D+01
 4 12  3  1 10  0  0.0  .109545420855D-03  .114823706099D-10  .000000000000D+00
     .570000000000D+02 -.550000000000D+01  .531414992710D-08  .738818570873D-01
    -.109896063805D-06  .995326612610D-02  .744126737118D-05  .515380186081D+04
     .381600000000D+06 -.186264514923D-07  .398334903379D+00  .102445483208D-06
     .938098718457D+00  .222843750000D+03  .832176531379D+00 -.850535428215D-08
    -.136434254463D-09  .100000000000D+01  .167700000000D+04  .000000000000D+00
     .240000000000D+01  .000000000000D+00 -.605359673500D-08  .570000000000D+02
     .374406000000D+06  .400000000000D+01
 5 12  3  1 10  0  0.0 -.288723502308D-03 -.432009983342D-11  .000000000000D+00
     .600000000000D+02  .400625000000D+02  .467340895196D-08 -.108451494318D+01
     .206008553505D-05  .269659981132D-02  .834092497826D-05  .515361362839D+04
     .381600000000D+06  .707805156708D-07  .144434967117D+01 -.391155481339D-07
     .951403051379D+00  .215031250000D+03  .297855541050D+00 -.804997817105D-08
    -.250010413937D-09  .100000000000D+01  .167700000000D+04  .000000000000D+00
     .240000000000D+01  .000000000000D+00 -.102445483208D-07  .600000000000D+02
     .374406000000D+06  .400000000000D+01
 6 12  3  1 10  0  0.0  .314665958285D-04  .682121026330D-12  .000000000000D+00
     .710000000000D+02 -.327187500000D+02  .518628745826D-08 -.939390798426D+00
    -.180117785931D-05  .708710600156D-02  .808201730251D-05  .515369506073D+04
     .381600000000D+06 -.298023223877D-07 -.704926417735D+00 -.894069671631D-07
     .937629861990D+00  .212812500000D+03 -.600547261055D+00 -.833463288520D-08
     .354300472323D-09  .100000000000D+01  .167700000000D+04  .000000000000D+00
     .240000000000D+01  .000000000000D+00 -.512227416039D-08  .710000000000D+02
     .374406000000D+06  .400000000000D+01
